ELFIN-A                 
1 43617U 18070E   21142.89668449  .00008099  00000-0  17186-3 0  9993
2 43617  93.0288 296.2920 0016143  97.4469 262.8623 15.44909426150848
CUBEBEL-1 (BSUSAT-1)    
1 43666U 18083E   21142.89571822  .00001775  00000-0  87302-4 0  9991
2 43666  97.4566 171.5864 0012666 256.3867 225.1482 15.19276491142134
CICERO 10               
1 43690U 18088A   21142.92222394  .00001678  00000-0  73273-4 0  9998
2 43690  85.0404 214.5029 0016189 137.5127 222.7371 15.21177378140347
IRVINE01                
1 43693U 18088D   21142.90625503  .00003793  00000-0  14781-3 0  9996
2 43693  85.0369 211.9311 0019079 117.0163 243.3031 15.25422751140545
PROXIMA I               
1 43694U 18088E   21142.92116652  .00001529  00000-0  63110-4 0  9995
2 43694  85.0346 212.1806 0020970 112.0475 248.2997 15.22903743140497
PROXIMA II              
1 43696U 18088G   21142.91937921  .00001535  00000-0  63379-4 0  9990
2 43696  85.0346 212.1900 0021035 112.0218 248.3262 15.22902045140481
FACSAT-1                
1 43721U 18096C   21143.19681728  .00016179  00000-0  57796-3 0  9995
2 43721  97.3830 220.5296 0017028   7.5680  79.8515 15.28781549138264
CENTAURI-2              
1 43722U 18096D   21142.77712757  .00003239  00000-0  11428-3 0  9991
2 43722  97.3879 220.8573 0016406   7.4310 352.7171 15.29856883138230
INNOSAT-2               
1 43738U 18096V   21142.83406652  .00006003  00000-0  18772-3 0  9990
2 43738  97.3920 224.5365 0021224   7.5873 133.6188 15.33307834138475
SIRION PATHFINDER-2     
1 43759U 18099B   21142.90086235  .00000009  00000-0  59387-5 0  9994
2 43759  97.6652 214.0327 0015495 125.3846 234.8825 14.95506294134664
CORVUS BC4              
1 43767U 18099K   21142.90257402 -.00000075  00000-0 -17211-5 0  9994
2 43767  97.6625 213.0582 0012912 129.2378 230.9991 14.94932182134613
MOVE-II                 
1 43780U 18099Y   21142.92627800  .00000800  00000-0  76510-4 0  9994
2 43780  97.6671 214.1806 0014603 136.2078 224.0304 14.95894052134654
SPACEBEE-7              
1 43816U 18099BL  21142.67381827  .00001088  00000-0  10166-3 0  9995
2 43816  97.6689 214.5163 0014879 122.0287 238.2382 14.96103213134200
SPACEBEE-5              
1 43817U 18099BM  21142.70029399  .00001609  00000-0  14351-3 0  9992
2 43817  97.6784 215.7275 0014670 120.0470 240.2210 14.97290484134251
SPACEBEE-6              
1 43818U 18099BN  21142.71129666  .00000474  00000-0  46723-4 0  9990
2 43818  97.6716 214.9163 0014539 121.1525 239.1125 14.96463764134378
SHIELDS 1               
1 43850U 18104B   21142.94374119  .00000776  00000-0  32323-4 0  9999
2 43850  85.0264 310.8150 0012456 261.2441  98.7390 15.21854681135098
STF-1                   
1 43852U 18104D   21142.92098342  .00001727  00000-0  73025-4 0  9991
2 43852  85.0302 311.4989 0011890 278.0922  81.8971 15.22369837135072
ZACUBE-2                
1 43907U 18111AH  21142.86642223  .00001099  00000-0  46337-4 0  9994
2 43907  97.2348  37.8684 0022237  28.6003  33.6239 15.25164331133733
LUME 1                  
1 43908U 18111AJ  21142.95570329  .00001854  00000-0  74086-4 0  9993
2 43908  97.2363  38.4797 0021334  26.5503 333.6824 15.26159540133787
AOBA VELOX-IV           
1 43940U 19003J   21142.75241552  .00004252  00000-0  16134-3 0  9995
2 43940  97.1802 187.8079 0024483 100.3739 260.0262 15.27090280130380
UNITE                   
1 44031U 98067PX  21142.03776322  .00039605  00000-0  24522-3 0  9993
2 44031  51.6402  41.5440 0001483 168.4619 191.6415 15.76656023131509
RAAVANA-1               
1 44329U 98067QE  21142.80358245  .00047054  00000-0  31087-3 0  9999
2 44329  51.6355  57.2552 0004523 162.7590 197.3564 15.75082597110117
UGUISU                  
1 44330U 98067QF  21142.91997875  .00042964  00000-0  29003-3 0  9991
2 44330  51.6314  57.1950 0004506 165.6048 194.5080 15.74625719110105
NEPALISAT-1             
1 44331U 98067QG  21142.48078299  .00048569  00000-0  32216-3 0  9991
2 44331  51.6324  58.7598 0004472 162.8537 197.2614 15.74977151110053
SPOOQY-1                
1 44332U 98067QH  21142.86581859  .00040672  00000-0  28006-3 0  9994
2 44332  51.6337  57.6225 0003872 161.9541 198.1596 15.74194159110060
SPACEBEE-9              
1 44370U 19037F   21142.95584049  .00026735  00000-0  38107-3 0  9997
2 44370  45.0014   4.0602 0003897  82.6983 277.4354 15.55874912107219
MOVE-IIB                
1 44398U 19038N   21142.85848112  .00002286  00000-0  13023-3 0  9996
2 44398  97.5820 106.9809 0025539  41.0526 319.2622 15.13574453103890
SONATE                  
1 44400U 19038Q   21142.84476609  .00000893  00000-0  54710-4 0  9998
2 44400  97.5874 106.8623 0026013  40.7908 319.5265 15.12509006103868
LUCKY-7                 
1 44406U 19038W   21142.85527840  .00001154  00000-0  68863-4 0  9994
2 44406  97.5880 107.1099 0025397  40.1384 320.1717 15.12904872103879
BEESAT 9                
1 44412U 19038AC  21142.81388068  .00001516  00000-0  88594-4 0  9999
2 44412  97.5863 107.0870 0023499  45.5610 314.7538 15.13217071103571
JAISAT-1                
1 44419U 19038F   21142.85794232  .00001537  00000-0  88619-4 0  9995
2 44419  97.5867 107.6580 0022357  43.9784 316.3221 15.13701865103927
KRAKSAT                 
1 44427U 98067QM  21142.87650126  .00026954  00000-0  25961-3 0  9998
2 44427  51.6378  70.4226 0003997 123.8899 345.1909 15.66317906107465
VCC A                   
1 44428U 98067QN  21142.38532675  .00039335  00000-0  28610-3 0  9994
2 44428  51.6355  63.5517 0003658 132.0747 228.0563 15.72930156107511
ENTRYSAT                
1 44429U 98067QP  21142.92886076  .00075810  00000-0  36992-3 0  9992
2 44429  51.6299  51.9837 0004160 145.9500 214.1770 15.81649258107712
VCC C                   
1 44430U 98067QQ  21135.86339224  .14395497  12494-4  36286-3 0  9998
2 44430  51.6031  72.7547 0006607 237.3053 122.7339 16.45570539105634
VCC B                   
1 44431U 98067QR  21142.47478438  .00044186  00000-0  31321-3 0  9997
2 44431  51.6323  62.5576 0003788 133.0952 227.0365 15.73479602107476
DUCHIFAT-3              
1 44854U 19089C   21142.69024840  .00000675  00000-0  60364-4 0  9996
2 44854  36.9661 252.9899 0009530 293.9971  65.9766 14.99477993 79231
EYESAT-NANO             
1 44877U 19092E   21142.51355224  .00001912  00000-0  97438-4 0  9996
2 44877  97.4606 326.5220 0011537 281.4324  78.5614 15.17938953 79003
ORBITAL FACTORY 2 (OF-2)
1 45113U 19071C   21142.76598008  .00002208  00000-0  73713-4 0  9992
2 45113  51.6409 162.0454 0011490 198.9116 161.1441 15.35613797 73222
M2 PATHFINDER           
1 45727U 20037E   21142.92241176  .00000907  00000-0  96353-4 0  9995
2 45727  97.7140 321.2980 0011679 251.4101 108.5886 14.91377992 48615
NETSAT-4                
1 46504U 20068U   21142.92017484  .00000051  00000-0  84781-5 0  9999
2 46504  97.6824  79.9863 0010168 211.5421 148.5195 15.02067226 35407
NETSAT-3                
1 46505U 20068V   21142.79290588  .00007182  00000-0  55129-3 0  9997
2 46505  97.6899  79.8441 0007659 209.2249 150.8544 15.02055902 35394
NETSAT-1                
1 46506U 20068W   21142.93201087 -.00000047  00000-0  10348-5 0  9990
2 46506  97.6863  79.9582 0005159 208.7004 151.3929 15.02013747 35416
NETSAT-2                
1 46507U 20068X   21142.93516222  .00000016  00000-0  58057-5 0  9995
2 46507  97.6888  79.9613 0004156 203.2869 156.8143 15.01995577 35365
SPOC                    
1 46921U 98067RR  21142.48125209  .00008719  00000-0  13975-3 0  9996
2 46921  51.6411 105.5047 0002274  12.7079 347.3969 15.53936487 30820
BOBCAT-1                
1 46922U 98067RS  21142.90773241  .00012121  00000-0  18123-3 0  9991
2 46922  51.6419 102.3688 0002307  27.7960 332.3154 15.55442121 30860
NEUTRON-1               
1 46923U 98067RT  21142.43039301  .00008837  00000-0  14217-3 0  9991
2 46923  51.6410 105.9127 0002462  24.2336 335.8770 15.53811600 30840
1998-067RU              
1 46924U 98067RU  21142.87111017  .00022616  00000-0  29504-3 0  9991
2 46924  51.6395 100.5998 0003481  57.8544 302.2786 15.58595382 30920
DESCENT                 
1 46927U 98067RX  21142.62795584  .00009262  00000-0  14879-3 0  9995
2 46927  51.6409 104.9797 0002898  38.9327 321.1872 15.53785941 30781
SAI-1 NANOCONNECT-2     
1 47701U 21015C   21142.72059877 -.00000071  00000-0  00000-0 0  9992
2 47701  97.4558 217.4613 0013144  32.5809 327.6343 15.22576888 12703
WARP-01                 
1 47924U 98067SA  21142.86151083  .00010798  00000-0  18880-3 0  9991
2 47924  51.6410 107.2734 0005689  23.3694 336.7553 15.51194026 10821
RSP-01                  
1 47925U 98067SB  21142.92336357  .00008825  00000-0  15621-3 0  9996
2 47925  51.6416 106.9413 0001644 336.7629  23.3285 15.51116906 10815
TAUSAT-1                
1 47926U 98067SC  21142.32665336  .00011860  00000-0  20340-3 0  9990
2 47926  51.6415 109.7064 0002668 323.5430  36.5377 15.51640693 10711
TSURU                   
1 47927U 98067SD  21142.79665974  .00007727  00000-0  13832-3 0  9995
2 47927  51.6417 107.5947 0001623 330.6804  29.4094 15.50998467 10793
STARS-EC                
1 47928U 98067SE  21142.60545884  .00011687  00000-0  20472-3 0  9991
2 47928  51.6411 108.5637 0006446  24.6468 335.4828 15.51044698 10748
MAYA-2                  
1 47929U 98067SF  21142.92407552  .00008088  00000-0  14424-3 0  9997
2 47929  51.6418 106.9458 0001647 325.3698  34.7184 15.51032767 10774
HIROGARI (OPUSAT-II)    
1 47930U 98067SG  21142.91857045  .00012028  00000-0  20780-3 0  9995
2 47930  51.6416 106.9098 0001467 330.3421  29.7485 15.51416136 10813
GUARANISAT-1            
1 47931U 98067SH  21142.92348297  .00008003  00000-0  14275-3 0  9991
2 47931  51.6419 106.9424 0001658 323.6772  36.4104 15.51045844 10813
SMOG-1                  
1 47964U 21022AJ  21141.75654250  .00001421  00000-0  98644-4 0  9993
2 47964  97.5582  44.5566 0021253  39.4916  45.3727 15.07003395  7854
